CCSDS_OMM_VERS = 2.0
CREATION_DATE  = 
ORIGINATOR     = 

OBJECT_NAME    = UNKNOWN
OBJECT_ID      = 
CENTER_NAME    = EARTH
REF_FRAME      = TEME
TIME_SYSTEM    = UTC
MEAN_ELEMENT_THEORY = SGP/SGP4

EPOCH          = 2026-02-25T00:58:47.936640
MEAN_MOTION    = 14.04679370
ECCENTRICITY   = .0081636
INCLINATION    = 98.7453
RA_OF_ASC_NODE = 93.6492
ARG_OF_PERICENTER = 42.6311
MEAN_ANOMALY   = 318.1154

EPHEMERIS_TYPE = 0
CLASSIFICATION_TYPE = U
NORAD_CAT_ID   = 87029
ELEMENT_SET_NO = 999
REV_AT_EPOCH   = 60343
BSTAR          = .6063E-3
MEAN_MOTION_DOT = .958E-5
MEAN_MOTION_DDOT = 0

CCSDS_OMM_VERS = 2.0
CREATION_DATE  = 
ORIGINATOR     = 

OBJECT_NAME    = UNKNOWN
OBJECT_ID      = 
CENTER_NAME    = EARTH
REF_FRAME      = TEME
TIME_SYSTEM    = UTC
MEAN_ELEMENT_THEORY = SGP/SGP4

EPOCH          = 2026-02-28T09:28:15.755520
MEAN_MOTION    = 14.07259677
ECCENTRICITY   = .0042795
INCLINATION    = 98.7040
RA_OF_ASC_NODE = 104.7865
ARG_OF_PERICENTER = 234.4958
MEAN_ANOMALY   = 125.2216

EPHEMERIS_TYPE = 0
CLASSIFICATION_TYPE = U
NORAD_CAT_ID   = 87042
ELEMENT_SET_NO = 999
REV_AT_EPOCH   = 56488
BSTAR          = .53452E-3
MEAN_MOTION_DOT = .862E-5
MEAN_MOTION_DDOT = 0

CCSDS_OMM_VERS = 2.0
CREATION_DATE  = 
ORIGINATOR     = 

OBJECT_NAME    = UNKNOWN
OBJECT_ID      = 
CENTER_NAME    = EARTH
REF_FRAME      = TEME
TIME_SYSTEM    = UTC
MEAN_ELEMENT_THEORY = SGP/SGP4

EPOCH          = 2026-02-28T07:41:55.125888
MEAN_MOTION    = 13.46226817
ECCENTRICITY   = .070893
INCLINATION    = 65.7276
RA_OF_ASC_NODE = 69.3456
ARG_OF_PERICENTER = 105.7925
MEAN_ANOMALY   = 262.2413

EPHEMERIS_TYPE = 0
CLASSIFICATION_TYPE = U
NORAD_CAT_ID   = 87051
ELEMENT_SET_NO = 999
REV_AT_EPOCH   = 59902
BSTAR          = .47203E-3
MEAN_MOTION_DOT = .1276E-4
MEAN_MOTION_DDOT = 0

CCSDS_OMM_VERS = 2.0
CREATION_DATE  = 
ORIGINATOR     = 

OBJECT_NAME    = UNKNOWN
OBJECT_ID      = 
CENTER_NAME    = EARTH
REF_FRAME      = TEME
TIME_SYSTEM    = UTC
MEAN_ELEMENT_THEORY = SGP/SGP4

EPOCH          = 2026-02-28T15:26:49.886016
MEAN_MOTION    = 14.11431884
ECCENTRICITY   = .0012964
INCLINATION    = 100.0903
RA_OF_ASC_NODE = 313.6361
ARG_OF_PERICENTER = 127.9635
MEAN_ANOMALY   = 232.2705

EPHEMERIS_TYPE = 0
CLASSIFICATION_TYPE = U
NORAD_CAT_ID   = 87054
ELEMENT_SET_NO = 999
REV_AT_EPOCH   = 62731
BSTAR          = .10222E-2
MEAN_MOTION_DOT = .1799E-4
MEAN_MOTION_DDOT = 0

CCSDS_OMM_VERS = 2.0
CREATION_DATE  = 
ORIGINATOR     = 

OBJECT_NAME    = UNKNOWN
OBJECT_ID      = 
CENTER_NAME    = EARTH
REF_FRAME      = TEME
TIME_SYSTEM    = UTC
MEAN_ELEMENT_THEORY = SGP/SGP4

EPOCH          = 2026-02-28T12:00:32.647104
MEAN_MOTION    = 13.86537266
ECCENTRICITY   = .0472857
INCLINATION    = 61.2215
RA_OF_ASC_NODE = 40.5741
ARG_OF_PERICENTER = 276.7392
MEAN_ANOMALY   = 78.0057

EPHEMERIS_TYPE = 0
CLASSIFICATION_TYPE = U
NORAD_CAT_ID   = 87071
ELEMENT_SET_NO = 999
REV_AT_EPOCH   = 61326
BSTAR          = .18767E-2
MEAN_MOTION_DOT = .5187E-4
MEAN_MOTION_DDOT = 0

CCSDS_OMM_VERS = 2.0
CREATION_DATE  = 
ORIGINATOR     = 

OBJECT_NAME    = UNKNOWN
OBJECT_ID      = 
CENTER_NAME    = EARTH
REF_FRAME      = TEME
TIME_SYSTEM    = UTC
MEAN_ELEMENT_THEORY = SGP/SGP4

EPOCH          = 2026-02-28T12:35:13.471008
MEAN_MOTION    = 12.42853067
ECCENTRICITY   = .0030107
INCLINATION    = 102.2550
RA_OF_ASC_NODE = 156.4113
ARG_OF_PERICENTER = 291.9149
MEAN_ANOMALY   = 67.8715

EPHEMERIS_TYPE = 0
CLASSIFICATION_TYPE = U
NORAD_CAT_ID   = 87129
ELEMENT_SET_NO = 999
REV_AT_EPOCH   = 55633
BSTAR          = .17061E-2
MEAN_MOTION_DOT = .19E-5
MEAN_MOTION_DDOT = 0

CCSDS_OMM_VERS = 2.0
CREATION_DATE  = 
ORIGINATOR     = 

OBJECT_NAME    = UNKNOWN
OBJECT_ID      = 
CENTER_NAME    = EARTH
REF_FRAME      = TEME
TIME_SYSTEM    = UTC
MEAN_ELEMENT_THEORY = SGP/SGP4

EPOCH          = 2026-02-28T11:32:10.593024
MEAN_MOTION    = 13.66288706
ECCENTRICITY   = .010535
INCLINATION    = 90.3448
RA_OF_ASC_NODE = 72.2002
ARG_OF_PERICENTER = 27.8472
MEAN_ANOMALY   = 332.8272

EPHEMERIS_TYPE = 0
CLASSIFICATION_TYPE = U
NORAD_CAT_ID   = 87159
ELEMENT_SET_NO = 999
REV_AT_EPOCH   = 56730
BSTAR          = .16012E-2
MEAN_MOTION_DOT = .1382E-4
MEAN_MOTION_DDOT = 0

CCSDS_OMM_VERS = 2.0
CREATION_DATE  = 
ORIGINATOR     = 

OBJECT_NAME    = UNKNOWN
OBJECT_ID      = 
CENTER_NAME    = EARTH
REF_FRAME      = TEME
TIME_SYSTEM    = UTC
MEAN_ELEMENT_THEORY = SGP/SGP4

EPOCH          = 2026-02-26T22:58:49.011744
MEAN_MOTION    = 13.64332481
ECCENTRICITY   = .0645483
INCLINATION    = 65.6000
RA_OF_ASC_NODE = 48.2473
ARG_OF_PERICENTER = 30.4801
MEAN_ANOMALY   = 333.2165

EPHEMERIS_TYPE = 0
CLASSIFICATION_TYPE = U
NORAD_CAT_ID   = 87163
ELEMENT_SET_NO = 999
REV_AT_EPOCH   = 58791
BSTAR          = .14429E-2
MEAN_MOTION_DOT = .4871E-4
MEAN_MOTION_DDOT = 0

CCSDS_OMM_VERS = 2.0
CREATION_DATE  = 
ORIGINATOR     = 

OBJECT_NAME    = UNKNOWN
OBJECT_ID      = 
CENTER_NAME    = EARTH
REF_FRAME      = TEME
TIME_SYSTEM    = UTC
MEAN_ELEMENT_THEORY = SGP/SGP4

EPOCH          = 2026-02-28T13:44:04.770816
MEAN_MOTION    = 14.59199266
ECCENTRICITY   = .0105127
INCLINATION    = 65.2024
RA_OF_ASC_NODE = 101.5097
ARG_OF_PERICENTER = 18.1644
MEAN_ANOMALY   = 342.3166

EPHEMERIS_TYPE = 0
CLASSIFICATION_TYPE = U
NORAD_CAT_ID   = 87164
ELEMENT_SET_NO = 999
REV_AT_EPOCH   = 64712
BSTAR          = .84687E-3
MEAN_MOTION_DOT = .4202E-4
MEAN_MOTION_DDOT = 0

CCSDS_OMM_VERS = 2.0
CREATION_DATE  = 
ORIGINATOR     = 

OBJECT_NAME    = UNKNOWN
OBJECT_ID      = 
CENTER_NAME    = EARTH
REF_FRAME      = TEME
TIME_SYSTEM    = UTC
MEAN_ELEMENT_THEORY = SGP/SGP4

EPOCH          = 2026-02-28T09:39:32.781600
MEAN_MOTION    = 14.29758741
ECCENTRICITY   = .0046287
INCLINATION    = 98.5336
RA_OF_ASC_NODE = 283.6697
ARG_OF_PERICENTER = 95.1961
MEAN_ANOMALY   = 265.4506

EPHEMERIS_TYPE = 0
CLASSIFICATION_TYPE = U
NORAD_CAT_ID   = 87204
ELEMENT_SET_NO = 999
REV_AT_EPOCH   = 63653
BSTAR          = .82849E-3
MEAN_MOTION_DOT = .211E-4
MEAN_MOTION_DDOT = 0

CCSDS_OMM_VERS = 2.0
CREATION_DATE  = 
ORIGINATOR     = 

OBJECT_NAME    = UNKNOWN
OBJECT_ID      = 
CENTER_NAME    = EARTH
REF_FRAME      = TEME
TIME_SYSTEM    = UTC
MEAN_ELEMENT_THEORY = SGP/SGP4

EPOCH          = 2026-02-24T19:39:16.252704
MEAN_MOTION    = 14.47142657
ECCENTRICITY   = .005159
INCLINATION    = 99.0886
RA_OF_ASC_NODE = 65.9782
ARG_OF_PERICENTER = 299.6495
MEAN_ANOMALY   = 186.2543

EPHEMERIS_TYPE = 0
CLASSIFICATION_TYPE = U
NORAD_CAT_ID   = 87211
ELEMENT_SET_NO = 999
REV_AT_EPOCH   = 71848
BSTAR          = .93562E-3
MEAN_MOTION_DOT = .3419E-4
MEAN_MOTION_DDOT = 0

CCSDS_OMM_VERS = 2.0
CREATION_DATE  = 
ORIGINATOR     = 

OBJECT_NAME    = UNKNOWN
OBJECT_ID      = 
CENTER_NAME    = EARTH
REF_FRAME      = TEME
TIME_SYSTEM    = UTC
MEAN_ELEMENT_THEORY = SGP/SGP4

EPOCH          = 2026-02-28T10:56:26.683296
MEAN_MOTION    = 13.84244605
ECCENTRICITY   = .0069362
INCLINATION    = 100.3326
RA_OF_ASC_NODE = 70.7631
ARG_OF_PERICENTER = 55.5242
MEAN_ANOMALY   = 305.2436

EPHEMERIS_TYPE = 0
CLASSIFICATION_TYPE = U
NORAD_CAT_ID   = 87214
ELEMENT_SET_NO = 999
REV_AT_EPOCH   = 61099
BSTAR          = .16393E-2
MEAN_MOTION_DOT = .1813E-4
MEAN_MOTION_DDOT = 0

