UNKNOWN                 
1 87029U          26056.04083260  .00000958  00000+0  60630-3 0  9997
2 87029  98.7453  93.6492 0081636  42.6311 318.1154 14.04679370603438
UNKNOWN                 
1 87042U          26059.39462680  .00000862  00000+0  53452-3 0  9998
2 87042  98.7040 104.7865 0042795 234.4958 125.2216 14.07259677564882
UNKNOWN                 
1 87051U          26059.32077692  .00001276  00000+0  47203-3 0  9993
2 87051  65.7276  69.3456 0708930 105.7925 262.2413 13.46226817599020
UNKNOWN                 
1 87054U          26059.64363294  .00001799  00000+0  10222-2 0  9997
2 87054 100.0903 313.6361 0012964 127.9635 232.2705 14.11431884627312
UNKNOWN                 
1 87071U          26059.50037786  .00005187  00000+0  18767-2 0  9992
2 87071  61.2215  40.5741 0472857 276.7392  78.0057 13.86537266613264
UNKNOWN                 
1 87129U          26059.52446147  .00000190  00000+0  17061-2 0  9998
2 87129 102.2550 156.4113 0030107 291.9149  67.8715 12.42853067556335
UNKNOWN                 
1 87159U          26059.48067816  .00001382  00000+0  16012-2 0  9997
2 87159  90.3448  72.2002 0105350  27.8472 332.8272 13.66288706567302
UNKNOWN                 
1 87163U          26057.95751171  .00004871  00000+0  14429-2 0  9992
2 87163  65.6000  48.2473 0645483  30.4801 333.2165 13.64332481587916
UNKNOWN                 
1 87164U          26059.57227744  .00004202  00000+0  84687-3 0  9999
2 87164  65.2024 101.5097 0105127  18.1644 342.3166 14.59199266647127
UNKNOWN                 
1 87204U          26059.40246275  .00002110  00000+0  82849-3 0  9990
2 87204  98.5336 283.6697 0046287  95.1961 265.4506 14.29758741636535
UNKNOWN                 
1 87211U          26055.81893811  .00003419  00000+0  93562-3 0  9990
2 87211  99.0886  65.9782 0051590 299.6495 186.2543 14.47142657718480
UNKNOWN                 
1 87214U          26059.45586439  .00001813  00000+0  16393-2 0  9994
2 87214 100.3326  70.7631 0069362  55.5242 305.2436 13.84244605610997
